[{"CCSDS_OMM_VERS":"3.0","COMMENT":"GENERATED VIA SPACE-TRACK.ORG API","CREATION_DATE":"2024-06-29T02:49:17","ORIGINATOR":"18 SPCS","OBJECT_NAME":"TBA - TO BE ASSIGNED","OBJECT_ID":"2011-061F","CENTER_NAME":"EARTH","REF_FRAME":"TEME","TIME_SYSTEM":"UTC","MEAN_ELEMENT_THEORY":"SGP4","EPOCH":"2024-06-27T12:17:50.225568","MEAN_MOTION":"16.15255437","ECCENTRICITY":"0.00242828","INCLINATION":"101.6760","RA_OF_ASC_NODE":"14.9457","ARG_OF_PERICENTER":"275.8696","MEAN_ANOMALY":"83.9806","EPHEMERIS_TYPE":"0","CLASSIFICATION_TYPE":"U","NORAD_CAT_ID":"270291","ELEMENT_SET_NO":"999","REV_AT_EPOCH":"69471","BSTAR":"0.00160288130000","MEAN_MOTION_DOT":"0.02250262","MEAN_MOTION_DDOT":"0.0000051757930","SEMIMAJOR_AXIS":"6610.602","PERIOD":"89.150","APOAPSIS":"248.520","PERIAPSIS":"216.415","OBJECT_TYPE":"UNKNOWN","RCS_SIZE":null,"COUNTRY_CODE":null,"LAUNCH_DATE":null,"SITE":null,"DECAY_DATE":null,"FILE":"4353920","GP_ID":"260559973","TLE_LINE0":"0 TBA - TO BE ASSIGNED","TLE_LINE1":"1 T0291U 11061F   24179.51238687  .02250262  51758-5  16029-2 0  9994","TLE_LINE2":"2 T0291 101.6760  14.9457 0024283 275.8696  83.9806 16.15255437694717"}]